[{"OBJECT_NAME":"STARLINK-1954","OBJECT_ID":"2021-009H","EPOCH":"2026-03-09T23:20:25.352160","MEAN_MOTION":15.30849174,"ECCENTRICITY":0.00046184,"INCLINATION":53.0574,"RA_OF_ASC_NODE":8.8654,"ARG_OF_PERICENTER":103.3293,"MEAN_ANOMALY":256.8222,"EPHEMERIS_TYPE":0,"CLASSIFICATION_TYPE":"U","NORAD_CAT_ID":47555,"ELEMENT_SET_NO":999,"REV_AT_EPOCH":28100,"BSTAR":0.0022371791,"MEAN_MOTION_DOT":0.00067883,"MEAN_MOTION_DDOT":0},{"OBJECT_NAME":"STARLINK-35723","OBJECT_ID":"2025-244F","EPOCH":"2026-03-09T18:06:15.387264","MEAN_MOTION":15.30210282,"ECCENTRICITY":0.00013227,"INCLINATION":53.1584,"RA_OF_ASC_NODE":229.3139,"ARG_OF_PERICENTER":85.1641,"MEAN_ANOMALY":274.9511,"EPHEMERIS_TYPE":0,"CLASSIFICATION_TYPE":"U","NORAD_CAT_ID":66211,"ELEMENT_SET_NO":999,"REV_AT_EPOCH":2166,"BSTAR":0.0010713325,"MEAN_MOTION_DOT":0.00031515,"MEAN_MOTION_DDOT":0}]
